GECAM-A                 
1 47234U 20094A   26058.13989985  .00002379  00000+0  17329-3 0  9993
2 47234  28.9961  20.3521 0010700 243.6219 116.3280 15.00334340285149
STARLINK-4632           
1 53679U 22105AH  26068.65563421 -.00001775  00000+0 -11887-3 0  9993
2 53679  97.6024 311.2676 0002937  86.7911 273.3651 15.05633478193304
